,place_name,place_id,lat,lng,type
0,bio plant - pupuk sawit super,ChIJzcXMLMVO1DERY3dr6iu0UPg,0.6913571999999999,101.6020314,airport
1,Travel Zhamela,ChIJRwv-J7yu1TERemaJZgv7sfM,0.5014370000000001,101.453075,airport
2,GEDUNG VIP LANCANG KUNING BANDAR UDARA SSK II PEKANBARU,ChIJfyEI-Tqv1TERnRNQ2axGc5E,0.4669026,101.4475801,airport
3,Bandara Internasional SSK II Pekanbaru,ChIJDYL1Kzqv1TER0XfHoqGdrRU,0.464691,101.4478337,airport
4,Bandara sultan syarif kasimII,ChIJmVfyaNGv1TERkw2jndzdL-s,0.4645874,101.4477217,airport
5,Bandar Udara Internasional Syarif Kasim II Pekanbaru,ChIJQakSBOev1TERLG6Pg9un_R8,0.4645344,101.4483296,airport
6,Sultan Syarif Kasim II International Airport,ChIJxwFScDmv1TERljqI_TQ4_JM,0.4644616,101.4481556,airport
7,Ruang Check Inn Batim Air,ChIJW2ouYDmv1TERh6SUu0fOkh0,0.4643697999999999,101.4493807,airport
8,Lapangan Helikopter,ChIJc_t7Uq6p1TERqAiao55BL1Q,0.4631374,101.3851277,airport
9,Helipad PT.Ikpp,ChIJbxRkBE5J1DERpGa85gIf1_U,0.6730556999999999,101.6219724,airport
10,Helli Path,ChIJJxX40Uda1DERVI6OufaPWXY,0.7656761000000001,101.4591097,airport
11,Lapter Rama Rama Estate,ChIJuewg3lce1TERtbGJeF-F5cY,0.5533927,101.035818,airport
12,ATM CIMB NIAGA (Hotel Angkasa Garden Pekanbaru),ChIJW4W1Gg2s1TERgE-hYauCA5w,0.535969,101.4516663,bank
13,Bank Bri Unit Sail,ChIJ8bdCtjys1TERv84y4lhC0v8,0.5249035000000001,101.4610196,bank
14,Bank Mandiri,ChIJmyXYaBus1TERjV6ssTT8IRA,0.5195394999999999,101.444251,bank
15,Bank Danamon Pekanbaru - Simpang Pasar Bawah,ChIJf-XeYQ2s1TERV0lMbulRGtA,0.5365985999999999,101.4433547,bank
16,Danamon KC WAHID HASYIM,ChIJEyqnQRKs1TERya0An_4EkhI,0.5272717,101.4481716,bank
17,Bank Permata - Sudirman,ChIJn5vmlbyu1TER9KAaL6_kOPI,0.500601,101.452951,bank
18,Mandiri KCP Pekanbaru Ahmad Yani,ChIJo_t6Ww6s1TER_mgpi_PrG90,0.5195924,101.4442701,bank
19,Mandiri Pekanbaru Jalan Riau,ChIJL-gB6Yqr1TERJ5YF0ui5ja8,0.5351117,101.4377074,bank
20,Bank BNI Syariah KCP Panam,ChIJSfptz_Oo1TERYlFeYarvQBY,0.4639601,101.3972177,bank
21,CDM CIMB NIAGA (Pekanbaru Duri),ChIJBQLtzNWt1TERsZEe62QVHqk,0.517473,101.484064,bank
22,Bank Syariah Mandiri KCP Pekanbaru Sudirman Bawah,ChIJn46FShKs1TER6f57XUZCj3o,0.5304854,101.4478082,bank
23,BNI Life,ChIJs28JWASs1TERTeqy_9C_CB0,0.521651,101.442418,bank
24,Mandiri Micro Business Unit Pekanbaru Sudirman Bawah,ChIJn5vmlbyu1TERGsFoCdVFR1Y,0.496853,101.4564464,bank
25,Bank Mandiri - KCP Pekanbaru Panam,ChIJNVYGCUSo1TER8Iyg616RTp4,0.4637891,101.4097403,bank
26,Bank Negara Indonesia - KCP Tanjung Pinang,ChIJ9ewGbxOs1TERocfIwbfIquc,0.5322714,101.4500928,bank
27,Mandiri Unit Mikro Pekanbaru T. TaUnit Mikrosai,ChIJXehSoK-u1TER4heXydhOjHQ,0.4991016,101.406695,bank
28,BANK BTN KC PEKANBARU,ChIJexsI76au1TERfvSmQayPhGY,0.512274,101.4486575,bank
29,Mandiri Kiosk Micro Sukaramai Pekanbaru,ChIJ34Imkaau1TER1f-yE0T4kkU,0.5287443,101.4466435,bank
30,Bank Riau Kepri,ChIJu6pudh2s1TERDjfZZ0nZEoc,0.5195327,101.4472835,bank
31,Bank BTN (Bank Tabungan Negara),ChIJnQFL4ISs1TERyJ5aADmNnwk,0.5605588,101.4423867,bank
32,Happy Puppy,ChIJI4X9Y42r1TERI3V4hdkFlWA,0.535046,101.4231979,bar
33,Karaoke K'ok,ChIJdYVM6KWu1TER_n9mvbL48Co,0.5099770000000001,101.446578,bar
34,PETERSELI KITCHEN,ChIJ-YOvERSs1TER1tk3upFhaLs,0.510427,101.454093,bar
35,Alpha Singers,ChIJeWxaRr6u1TERyqbBJDcnNmI,0.4998015,101.4549841,bar
36,Happy Puppy Sudirman,ChIJrX9EVxKs1TERy1Pvkk4dJPA,0.4887462,101.4540202,bar
37,Base Came Telkomsel,ChIJD83qBz2s1TERw0VjmFhUWHM,0.5268183,101.4588479,bar
38,Diva,ChIJIwAAAKut1TERMEdkrFnf_H4,0.4821602,101.4538266,bar
39,XP Exclusive Club,ChIJMUrJGG2s1TERx9BN0PfJElE,0.5346531000000001,101.4477861,bar
40,NEW PARAGON KTV POOL & CAFE,ChIJJX3PK2us1TERVOX4W6ETvQg,0.5347780999999999,101.4534774,bar
41,Ayank Square,ChIJ5VBWrHOs1TERXWHfCq2Gw7Y,0.5365924999999999,101.4422457,bar
42,Bier Haus Cafe,ChIJxb7ZvvKr1TERKLhwjiUNnOc,0.5329904999999999,101.4237857,bar
43,Inul Vista,ChIJyxyJWHOp1TER6I74rNgRpBU,0.4976277,101.3942322,bar
44,Kontrakan Simus (Beskem),ChIJTYT2o_io1TERjRk0pbXReug,0.4728764999999999,101.3889193,bar
45,KK milk shake,ChIJM5hq6-HE1TERdmGvwYaqDbo,0.4025154999999999,101.8629884,bar
46,Rismaljln anggrek,ChIJu8t4IaWu1TERVICesuiHG-k,0.5070677,101.4477793,bar
47,Terminal 8,ChIJsWPnqLyu1TERctXbYsftvdE,0.5055955000000001,101.451216,bar
48,Driver Chapter Favorit,ChIJI9viNBCv1TERYBTvxJR7HUg,0.5029868999999999,101.4538774,bar
49,Ojol Chapter Favorit,ChIJWbfoeLWv1TERIe-Jz1o74FY,0.5029711,101.4538757,bar
50,Kos Andika,ChIJ5SG9Sqyu1TER-f_9yr57cj8,0.5084571,101.4381237,bar
51,BIUS. KOPI,ChIJte0t5T6v1TERr-vcWFjdS5Q,0.4990951,101.4389536,bar
52,Natasha Skin Care - Pekanbaru,ChIJ_ZFH7Eap1TERrUlFBrp_Bsc,0.500118,101.41878,beauty_salon
53,Inasa Cosmetic Dan Laser Clinic,ChIJYz4IcxGs1TERU9NdqBm7_tU,0.5284595000000001,101.4488489,beauty_salon
54,waxing corner,ChIJq52FVZ6u1TERPhQQdP1rXDY,0.513012,101.459688,beauty_salon
55,Marie France Bodyline - Pekanbaru,ChIJPcFM7Eap1TERLQehcOvH6hI,0.5001289999999999,101.418829,beauty_salon
56,Impression Pekanbaru,ChIJLxl-6h-s1TERJanDw6dDe6o,0.508322,101.476509,beauty_salon
57,Nike,ChIJ74WS_QGs1TERynUfDjrFTQw,0.515377,101.43914,beauty_salon
58,Permaisuri,ChIJJ5A9PwKs1TER3J5jt5iLZUI,0.5166507,101.4409329,beauty_salon
59,Vivi Salon,ChIJhQWTHwSs1TERd1w5Ez0G3UY,0.5211418999999999,101.439666,beauty_salon
60,Salon Rudy & Spa RHO,ChIJvU2FaRCs1TERGyDDsDOa1Rk,0.5256367,101.4470898,beauty_salon
61,Sanggar Diza,ChIJl49gQ-2u1TERiQEF13yfwZQ,0.4959071,101.4670467,beauty_salon
62,Brown Salon,ChIJk0pCUxKs1TER6deV7WAfOpU,0.531199,101.448033,beauty_salon
63,Johnny Andrean,ChIJG6pOGhOs1TERffds1_VhApo,0.5323143,101.4486659,beauty_salon
64,Dahlia Salon,ChIJnxqE6vmr1TERA3QSXLawOoQ,0.5236876,101.4296186,beauty_salon
65,Maxx By Rudy Hadisuwarno,ChIJa8eCYROs1TERI3FUzuctJDU,0.5323252999999999,101.4528598,beauty_salon
66,Indra Salon,ChIJg9oX8Tus1TERS8DAMu4QRAQ,0.5284267,101.4627554,beauty_salon
67,Mom n Jo Pekanbaru (Mom-Baby-Kid Centre),ChIJEUWk8tiu1TERAr_sUP5N3eE,0.4794330000000001,101.448929,beauty_salon
68,Johnny Andrean,ChIJAyDWx0ap1TERu48wzkGnaOI,0.5002028,101.4175917,beauty_salon
69,dr. Chen Skin Care,ChIJ93cJs0ap1TERg8m9xX_QeMQ,0.5007079999999999,101.417048,beauty_salon
70,My Salon,ChIJAyDWx0ap1TERcUkK_46u714,0.5002028,101.4175917,beauty_salon
71,Rudy Salon,ChIJyeZAO0qs1TERHME_X9owmaU,0.535318,101.4744527,beauty_salon
72,Toko Buku Gramedia - Pekanbaru,ChIJn5vmlbyu1TERMsSjQhzSOEM,0.5101001000000001,101.4498796,book_store
73,Bookstore Zanafa,ChIJjcHMLFmo1TER5gukebmKRwo,0.4644452999999999,101.3852567,book_store
74,Tiga Serangkai,ChIJta0o5Kuu1TERuXnRgMLuu9k,0.511558,101.439103,book_store
75,Toko Buku Karisma Mandau City,ChIJ4w5hgAGs1TERgjm5EoEonQA,0.51752,101.439519,book_store
76,toko buku yasperin,ChIJM7uy202p1TERBRH2gKTTLb8,0.5045050000000001,101.428722,book_store
77,Gramedia,ChIJyz2A-xKs1TERcR2T1-fPWw8,0.5318788,101.4478089,book_store
78,Outlet JET Express Jack Agency,ChIJP6vgXwys1TERjoGULPetgGA,0.5314797,101.4410346,book_store
79,Paper Clip Ciputra Seraya,ChIJ1_9dFIur1TERylT7oO4JaDw,0.535265,101.429856,book_store
80,Karisma Mall Ciputra Seraya Pekanbaru,ChIJxR4kD4ur1TERBQ-KwpHYZTA,0.535866,101.430212,book_store
81,Mentari Books Indonesia,ChIJr3CLLPOr1TERg-hIyv0dX5w,0.533768,101.425832,book_store
82,Toko Muazzam,ChIJHcXDuWCp1TERyJEqFwY4fMQ,0.5114508,101.4101857,book_store
83,Agen Distributor Pro-U Media,ChIJg6Cgl9ao1TERBcE7h-7gwbs,0.4750037,101.4274858,book_store
84,Aksara,ChIJB9gSuEKu1TERxaB0f7CPq_4,0.4954741,101.4915201,book_store
85,Al Mumtaz,ChIJhwvyG_So1TERs7EZamIMYL4,0.4599603,101.3600189,book_store
86,AZMAR FOTOCOPY,ChIJ9___WJdO1DERt4jk6o70Btw,0.6736778999999999,101.5877454,book_store
87,Parker,ChIJ_-eAxZLE1TERiEt8r_C0WQs,0.3835919,101.8577242,book_store
88,Toko Buku ALFIRA,ChIJp45sJ7uu1TERcg7yPy_9lgg,0.5050699,101.4461957,book_store
89,Major book,ChIJYS9dcL6v1TERuFu5kungiug,0.5047847,101.4464484,book_store
90,Toko Buku Aneka Jaya,ChIJjy58gKWu1TER6R6J2gXGBFY,0.5085143,101.4452959,book_store
91,Selekta. PD,ChIJ7z15gKSu1TERs1BTf4xOaFU,0.5083578,101.4508007,book_store
92,D'Round Cafe,ChIJFwTx2qWu1TERHi5t5H3WyFU,0.5101718999999999,101.4465402,cafe
93,Excelso,ChIJI3uo7kap1TER4nnMfaqu5BA,0.4992406,101.4187529,cafe
94,Nav,ChIJP_DB7Uap1TERfKFb0bYM4S4,0.5001019999999999,101.418917,cafe
95,Bola Kedai,ChIJL-gB6Yqr1TER5MAuGU2vE2E,0.5322595,101.445028,cafe
96,PETERSELI KITCHEN,ChIJ-YOvERSs1TER1tk3upFhaLs,0.510427,101.454093,cafe
97,"AISYAH ""SOP BUAH""",ChIJx-FVy66u1TERCAzO5MZ0dbA,0.5106849,101.441363,cafe
98,Gerobak Kopi Rambo,ChIJ9c2iGKKu1TER_Bn7_bdrjDM,0.5086729,101.4545201,cafe
99,Brocco Vegetable Ice Cream,ChIJmbjom72u1TERslhsn53RLWc,0.5035790000000001,101.455687,cafe
100,NANCY's Fruit Salad,ChIJr20Nmr2u1TERe2OqGmUR_7U,0.503184,101.455646,cafe
101,Markas Jangkriker 2,ChIJe_j1yK2u1TERh8gdouHRLic,0.5079021000000001,101.4383511,cafe
102,Kedai Kopi Kerisweet,ChIJKXglLp-u1TEReJDI44jT4rQ,0.5110669999999999,101.4587935,cafe
103,Temok Cafe (Bakso Temok),ChIJx9CIK6Cu1TERgvQVRCgEDbg,0.5129536000000001,101.4562927,cafe
104,D'Coconut Ice Cream,ChIJq4hX66yu1TER2_odR8e03AQ,0.5095277,101.4356785,cafe
105,Taichan Bang Mali,ChIJ3XxxlSGs1TERm5jw6eSKVwk,0.5135119999999999,101.45681,cafe
106,Markas Jangkrikers,ChIJe5TmmB6s1TERQ_n_e5SsimQ,0.5186694,101.4514118,cafe
107,Dapur Cokelat Pekanbaru,ChIJg5dz7xus1TERV-dqnk8lFLI,0.5207906,101.449843,cafe
108,Sop DurenDuren,ChIJF-JVNVWp1TERNlSGWFlsC5M,0.514187,101.4338929,cafe
109,MooNyusu_Pku,ChIJhSLL88uu1TEReqFeU3H_sqc,0.4926151999999999,101.438453,cafe
110,Kedai Kopi Tanjung Pinang,ChIJnygo5wGs1TER3CcKlFu4A98,0.5098228999999999,101.4311071,cafe
111,JCO Giant Pekan Baru,ChIJVTderE2p1TERWHFnz_Uyhb8,0.503537,101.430636,cafe
112,Masjid Ansharullah,ChIJhZmb67uo1TERvHE-krqO3aU,0.4542092,101.4181076,mosque
113,Masjid Al Mukhlisin,ChIJ8W9wqCKs1TERZzjtCA8JkFQ,0.5239887,101.4568942,mosque
114,Divsos Nadwah Pku,ChIJ91dagrGu1TER8X-IawzM_Ok,0.5039672,101.4400775,mosque
115,Masjid Asy Syakirin Kanwil DJP Riau dan Kepri,ChIJRRdyfx2s1TER0WAZSxwqDxc,0.5154999,101.4480416,mosque
116,Masjid SMAN 8 Pekanbaru,ChIJwX_8-Ziu1TERYcEX7B2eoRs,0.5086183,101.4587815,mosque
117,Musholla Darun na'im Sukaramai,ChIJn2yrMxCs1TEROFCAcUSWFKE,0.5263436,101.4472289,mosque
118,Masjid Agung An Nur Riau Province,ChIJVVVVVVWp1TERfhBex0uoQN4,0.5266630999999999,101.4508545,mosque
119,Masjid An-Nurimah,ChIJn2JMYTOp1TERi4aoLGinOHY,0.4919162,101.4322038,mosque
120,Musholla Mujahiddin,ChIJl-XVag2s1TER5dftavC_Yyo,0.5325626999999998,101.4438717,mosque
121,Masjid Al-Khasyi'in,ChIJ36b0dgys1TERnT5Ie3ePcq0,0.5307603,101.4397921,mosque
122,Masjid Al Jihad,ChIJGy5pagqs1TERV0yP456InPM,0.5305437,101.4345735,mosque
123,Masjid Raya Nur Alam,ChIJPSk42HOs1TER3ATxhK3EREU,0.5379933000000001,101.4422128,mosque
124,MASJID NURUL AMAL,ChIJ856mJjOv1TERKQc3W9Pm4II,0.4663679999999999,101.4350536,mosque
125,Masjid Raudhatul Ma'ruf,ChIJpXK8dRGv1TER9PaCbZZjh4I,0.4653374,101.4650411,mosque
126,Mushala Mujahidin,ChIJ65bC22av1TER2dscIoDhHnw,0.4466763,101.4598755,mosque
127,Masjid Darul Aman,ChIJY0uQsJWo1TER4EbLhXlHOn8,0.456763,101.4090211,mosque
128,Masjid Baiturrahim,ChIJmeWqvs6v1TERPkXnPGjufQA,0.4727129999999999,101.508814,mosque
129,Masjid Jami' Abu Ad Darda',ChIJW8XfXVio1TERhzYA4hHThrM,0.4671123,101.3869895,mosque
130,Al-Wihdah Islamic Center,ChIJibpIXnmo1TERX7jHcEjADvg,0.4458299000000001,101.3815137,mosque
131,Mushala At Taqwa,ChIJF_ID4S2m1TERKPDRe_7QLKQ,0.433528,101.3945084,mosque
132,Focus Clinical Laboratory,ChIJJbprPAKs1TERhE5g-7qVHhU,0.5166185999999999,101.4405257,doctor
133,Persatuan Dokter Spesialis Mata Indonesia,ChIJeyFuFhms1TER5WUAa91HbPk,0.5212,101.452771,doctor
134,Praktek Dokter Ali Sahman Lubis,ChIJzxR7C7qu1TERnC15v1etNm0,0.5024769,101.4455988,doctor
135,Klinik Pratama RUMAH ZAKAT,ChIJ7e4jIKiu1TERgapsJ66qz4A,0.5143400000000001,101.443855,doctor
136,Ikatan Bidan Indonesia PROVINSI RIAU,ChIJk8a_ah6s1TERMbsPQmR5BjE,0.5165415,101.4522891,doctor
137,Klinik AZ Dental Care,ChIJB4WC3KOu1TERm7SHtfhsdUE,0.5109564,101.458693,doctor
138,homeopati indonesia,ChIJuyMEQMSu1TERBtLuLxT365Q,0.4909895,101.4495022,doctor
139,Perhimpunan Dokter Spesialis Kardiovaskular Indonesia (Perki),ChIJQ0VN5hms1TERM9iJQFaXFCk,0.524107,101.45219,doctor
140,dr. Sugeng Riyadi,ChIJj43hbyes1TERJfPIsyYJqys,0.5159279999999999,101.4644329,doctor
141,Praktek dr. Zelfia Riyelly,ChIJ5WaDjeyu1TER2gDfjNhFyoA,0.4950043,101.4635316,doctor
142,"Doctor Raymond Widjajahakim, Sp. KK",ChIJHc26GQis1TERYnAhzXxbhF4,0.5256362,101.4341296,doctor
143,Rumah Khitan Dokter Wawan,ChIJFYnofdSu1TERO-bIGa4CZMk,0.4848785999999999,101.4367632,doctor
144,Rumah Sakit Mata SMEC Pekanbaru,ChIJL1qmY9au1TERNTEegteoAXQ,0.4800504999999999,101.4391045,doctor
145,"Alfian. dr, SpOG",ChIJfcDJEj-v1TER_06jhJYtUbI,0.4685954,101.4545202,doctor
146,Klinik Box Dental Care drg. Liariza Sativa Sembiring,ChIJd46A5umo1TER2Qzpe5MQj9w,0.4653425999999999,101.4106768,doctor
147,Klinik Narita,ChIJ39iOd5us1TERvOnPszR_FGQ,0.5638818999999999,101.4405095,doctor
148,Griya Satwa Pekanbaru,ChIJwXvyJ-yo1TERcQM8AiEcTj4,0.4654668,101.4037327,doctor
149,Klinik Drg Monika Oktaviani,ChIJvUZ_K5Ko1TERTQG5zVUozt4,0.4634367,101.4017463,doctor
150,Praktek drg.Muhammad Rizki,ChIJrTY54K6o1TERTMzqsD9pSsg,0.4471448,101.4251792,doctor
151,Ikatan Psikologi Klinis (IPK),ChIJnZxBwEKo1TERjMucREQFa9o,0.4611311,101.3758385,doctor
152,Uda Carlos,ChIJndYR7-eh1TERT0ItbUmFOew,0.3021954,101.4121372,doctor
153,Dermaze.id Mall SKA Pekanbaru,ChIJpct4IaWu1TERmKN7EXRW84M,0.5070677,101.4477792,doctor
154,Klinik Luckfy,ChIJpct4IaWu1TERj8VPiCBvvQY,0.5070677,101.4477792,doctor
155,Klinik Dokter Suryo,ChIJu8t4IaWu1TEROr7ezkL6wMU,0.5070677,101.4477793,doctor
156,Klinik Sehat Alami,ChIJu8t4IaWu1TERctyA2EfPQzQ,0.5070677,101.4477793,doctor
157,klinik dr jazil,ChIJ4U6HIAmv1TER4GUL4CjDjjo,0.5050068000000001,101.4470981,doctor
158,Taskurun Laundry,ChIJqYRbV6Wu1TERf3uSNBoRL3U,0.5066168000000001,101.4455627,doctor
159,Dokter Gigi Sorna,ChIJhXCbpbqu1TERTV2hUosnDgo,0.5054485,101.4457597,doctor
160,Dr. Marina,ChIJAQ5MgKSu1TERfrIlBBmfC38,0.50824,101.450837,doctor
161,Doktor Flemming. W,ChIJoSoHVa6u1TERCeRn36VFdgE,0.5077986,101.4423204,doctor
162,Rumah Sehat Alwend By NuSkin,ChIJd8EJ27yu1TERnrIddaVrDoU,0.5052774,101.4532534,doctor
163,Praktek Dokter Gusrianti,ChIJL5EzyrGu1TERPKEFizEdhkw,0.505045,101.44214,doctor
164,K ION NANO ORIGINAL,ChIJXU8pCg-v1TERI7_CZsppvoQ,0.5117831,101.4438124,doctor
165,BudeSumUrut,ChIJGdgGnauv1TERt4M6Ar4LjlM,0.5041412,101.4539853,doctor
166,BudeSumUrut,ChIJIXCFUwiv1TERdHBaAThQPKw,0.5041097,101.4540229,doctor
167,Rumah Bersalin Dan Balai Pengobatan Umum,ChIJdX1vy66u1TEREEMbyQ5jK8M,0.5105932,101.4413228,doctor
168,Praktek Umum,ChIJeWZ8Z6iu1TERQhmizEBWEIk,0.5134229999999999,101.44387,doctor
169,Praktek Dokter Umum,ChIJ_1svBbmu1TERrLCoI6g3aB8,0.4995677999999998,101.4487781,doctor
170,"Dr. Ratna, Sp. PD",ChIJS_-4eciv1TERofmiJfP9b1A,0.5145718,101.4449294,doctor
171,Drg. Elvi Triana Reswita,ChIJTTEDfB2s1TERwqP7W5-KjBs,0.5155776999999999,101.447741,doctor
172,STOKIS PT. MELIANATURE INDONESIA,ChIJ3agL9kap1TERwU_lOU4zagY,0.500022,101.4196171,dentist
173,"Praktek Ortodonti Kartini (drg. Wetti Lena, Sp.Ort)",ChIJzX114hus1TERXK5UaoAcTl8,0.52078,101.4509925,dentist
174,Riona Dental Care,ChIJ34RN8luu1TERqat70t-fqDg,0.4992617,101.4651126,dentist
175,klinik periodonsia Pekanbaru ( drg Mutiara Harvia Dewi Sp.Perio),ChIJHSxbe1Gp1TERmMRe0jKe0u0,0.5089437,101.427839,dentist
176,Klinik Pratama Sentral Medikal Utama,ChIJUTnwL_2r1TERh_i7swqcKVg,0.5171468,101.4232288,dentist
177,Drg. Tensy Aryanti Tambunan,ChIJfWUEKQ2s1TERTUFpkvUuFhA,0.5336574,101.4419147,dentist
178,"Praktek Dokter Gigi, drg. Agung T Prakoso Sp.BM, drg Diana Yuliarti, drg. Veni S. , Klinik Gigi Yassar",ChIJT_VHaoWs1TERutKEtnL8d3o,0.5604149999999999,101.444118,dentist
179,Klinik Narita,ChIJ39iOd5us1TERvOnPszR_FGQ,0.5638818999999999,101.4405095,dentist
180,company individual,ChIJD9AiVlmv1TERggtza0OTykA,0.4457527999999999,101.450298,dentist
181,Dokter Gigi,ChIJybFBuO2o1TER7ihci9ptM2g,0.463243,101.4018787,dentist
182,Praktek Dokter Gigi drg. Desi Zainul A,ChIJY6GKFu2o1TERtdhuU-EDw6E,0.4610276,101.4016422,dentist
183,Praktik Dokter Gigi Pramono & Maiyu,ChIJX_jknu_E1TER2Nyij7dhgwA,0.3838457,101.8576954,dentist
184,drg.TRESTY(achie),ChIJ5VpuAqSu1TERReve3EH1XkY,0.5106429,101.450477,dentist
185,drg.ACHIE ( Dental Care ),ChIJI0Btr6au1TERajaUSubh8wk,0.5110804000000001,101.4503241,dentist
186,Dokter Gigi Yuliana,ChIJ74AiS7Cu1TERZ8XkX1iIMZw,0.5047393,101.4425202,dentist
187,LUQYANA DENTAL CLINIC by. Drg Yuliana,ChIJyyfKSrCu1TEREbVHZCtZjek,0.5048328,101.4424539,dentist
188,"Drg Wan Fajriatul M, SpKG",ChIJbeBjMqGu1TERpxji3ky-0bU,0.5123679999999998,101.451145,dentist
189,Praktek Dokter Gigi Marliza,ChIJNcfnUKKu1TER3CMDJR3P-ak,0.5087310999999999,101.4543619,dentist
190,"Ahli Pasang Gigi ""Achmad""",ChIJu0FS57Gu1TERildC7vq48Zg,0.5057698,101.4409744,dentist
191,Suci's Dental,ChIJOZ5khqGu1TERmNBG9j9pPoM,0.5109273,101.4543452,dentist
192,Spartan Fitness & Health Club,ChIJU2QTb-qu1TERlrWlQOSi4Gw,0.4939019000000001,101.4576938,gym
193,Obet Fitnes,ChIJSdDj9HWs1TERAFginlg7gzA,0.5371959999999999,101.4343576,gym
194,Senam Pesona Pekanbaru,ChIJZSu92Ouo1TERKq7SFlrfw3k,0.464433,101.407381,gym
195,Ease to Fit,ChIJYUEoU7ep1TEREXB66TsmIiI,0.487243,101.371437,gym
196,Poppies,ChIJkeMN892v1TERuTW_Re5CQNA,0.5065337999999999,101.4465644,gym
197,Sanggar Senam Jn,ChIJA_JhUaWu1TERYswv-hX1uqI,0.5063563999999999,101.4457349,gym
198,Riau Fitness,ChIJVSfCyRKv1TERjqWrK7Ve6RI,0.5048042999999999,101.4439536,gym
199,Adilla Studio 2,ChIJcSeoE6au1TERgYUW6uocZ0I,0.5114787,101.4465097,gym
200,Akupuntur,ChIJRyp6eJCv1TER9aS0tezj0cY,0.5078055,101.4422647,gym
201,Sky Gym & Aerobik Center,ChIJZ15T5a6u1TERcnYipPqx_1Q,0.5089693000000001,101.4417458,gym
202,Malay Yoga,ChIJkx-9bq6u1TERqxt2POkPMMc,0.5075609,101.4405798,gym
203,Devata Family Spa & Fitness,ChIJz5WQkb6u1TERfgsT6cHSq4Q,0.5006011000000001,101.4529516,gym
204,BADNUR MEDISA GYM Cabang Sekolah Beladiri,ChIJv-8ghrGu1TERwXKKJRbsMD0,0.504331,101.439845,gym
205,Jaguar Fitness,ChIJn2hXPKiu1TERSmPMGKKf57w,0.5145605,101.4437674,gym
206,Posyandu Pucuk Rebung Sekuntum,ChIJY6qqBfyv1TER6lt3cOT0kGM,0.5079655999999999,101.4563559,gym
207,Anggreg 46,ChIJsddB0a2u1TER14a2NRyNFiI,0.5080399999999999,101.43915,gym
208,Prima Beauty Centre,ChIJEzq_HKiu1TERmtL7YWT5yOk,0.5151059,101.4444923,gym
209,Yamaha Motot,ChIJD7D5i62u1TERw6dwCL0Cfwk,0.5063559,101.4378549,gym
210,Zala Futsal,ChIJW5zUaymv1TER7SQGj6JNt2Y,0.5049085999999999,101.4379532,gym
211,Pak Kadir Urut&Reflexy,ChIJafWnkwKs1TERqcuaaJC2MnM,0.5163441,101.4433692,gym
212,Rapi,ChIJwxgBjP-r1TERZEHrlc9IRrw,0.5167833,101.4335472,hair_care
213,Salon Rudy & Spa RHO,ChIJvU2FaRCs1TERGyDDsDOa1Rk,0.5256367,101.4470898,hair_care
214,Kaizen Pekanbaru,ChIJn1_MePir1TERfh4utLoeCq8,0.5225964,101.4337977,hair_care
215,MAXX SALON FOR MEN (RUDY HADISUARNO),ChIJeablhtau1TERmhvb7Iw6mDw,0.4808061000000001,101.440224,hair_care
216,Barberbaard,ChIJW_-382qs1TERv8ihc9lF3pE,0.5357609999999999,101.454945,hair_care
217,Moustache Barbershop,ChIJXaFPD2us1TERhuR9RspMiQU,0.5360112,101.4545801,hair_care
218,Kaizen Mal SKA Pekanbaru,ChIJf0uMw0ap1TERCm4jSkcyG3I,0.49995,101.417979,hair_care
219,MAXX BARBERSHOP by Rudy Hadiswarno,ChIJG1IH54qr1TERKojHXPWsFd4,0.5350244999999999,101.4315145,hair_care
220,Johnny Andrean,ChIJj82tEYur1TERkYvRnrbZ4Bs,0.53551,101.4301693,hair_care
221,enbrosse barbershop,ChIJo7OEq6qu1TERNETEK_CI0cU,0.5308425999999999,101.4793763,hair_care
222,Pekanbaru Shop,ChIJ3RinInOp1TERsGXFqR8oamI,0.4978723999999999,101.3964027,hair_care
223,Omar Barbershop,ChIJwYFR6e6o1TER4aSbzo_pmpE,0.4660990999999999,101.4038227,hair_care
224,Pangkas rambut prima jaya,ChIJaWDw71mv1TERMdrBp54ebQ8,0.4452280999999999,101.4460174,hair_care
225,Bos Pomade,ChIJT5ze42yo1TERV84pKFnlvl0,0.4630841000000001,101.380892,hair_care
226,Pangkas Rambut Excellent,ChIJGVMJOePE1TERZwpjGHPVaxc,0.3982867,101.8561048,hair_care
227,Pangkas rambut ARYA,ChIJhT9Kuvuv1TERlpFGQ55UNRY,0.5065174,101.4490914,hair_care
228,Pangkas Rambut Model,ChIJ2Y5SsqWu1TERO_420syFK94,0.5090912,101.4478928,hair_care
229,Lam Alif Barbershop,ChIJi38KfDav1TERiiTtNxU5xTQ,0.509099,101.4478736,hair_care
230,Salon aisyah bohay...,ChIJ1QQQELOv1TERa3d2zN6fXJQ,0.5065453,101.4457332,hair_care
231,Pangkas Rambut Necis,ChIJ-8GE-Qav1TERTXw703f-GLM,0.5067126000000001,101.4456698,hair_care
232,Rumah Sakit Umum Daerah Petala Bumi,ChIJNTmw_z2s1TERIVNXuTa0NxM,0.528967,101.4569914,hospital
233,Hospital Prima,ChIJ2R8brBKp1TER-8xb3i72cPU,0.4967873999999999,101.4002879,hospital
234,Rsb Eria Bunda,ChIJDzwAv6uu1TERuMARXWOpD_4,0.5121831,101.4381334,hospital
235,Mother and Child Hospital of Andini,ChIJaRVwL0yp1TERRnlvFxfM3lI,0.5031608,101.4287223,hospital
236,Rumah Sakit Ibu dan Anak Sansani,ChIJ49kYYLmo1TERDAK8yfAEVwo,0.4559301999999999,101.4185131,hospital
237,RSIA Annisa,ChIJaa4rY7eu1TERK_DvDvxH6b8,0.4994397999999999,101.4450127,hospital
238,RS Syafira Pekanbaru,ChIJa8qfur-u1TERIwio-5W-HvY,0.4983749,101.4547638,hospital
239,Rumah Sakit Ibu dan Anak Zainab,ChIJ3Z2ya6Cu1TERe_YlxRmhfG0,0.5139282,101.4547347,hospital
240,Perhimpunan Dokter Spesialis Kulit Dan Kelamin Indonesia (Perdoski),ChIJwcoc8Rus1TERLuquULNeVvE,0.520349,101.450047,hospital
241,Radiologi Awalbros,ChIJnRbR_r-u1TERNVW7zKSp9Mw,0.4969521,101.4563041,hospital
242,RS Awal Bros Pekanbaru Sudirman,ChIJ8eVGa6Su1TERQ5b4yv61rNs,0.4965894,101.456288,hospital
243,RSUD ARIFIN ACHMAD PROVINSI RIAU,ChIJBdrSlhus1TERHooYkQ8ab6Q,0.5232855,101.4519695,hospital
244,RS Lancang Kuning,ChIJgyxrhZ-u1TERNVFYQTVG6EI,0.5125868999999998,101.4648892,hospital
245,Dokter Hewan Pekanbaru,ChIJxZPqAlKp1TERr0kEF9VqvIE,0.5067737,101.4271334,hospital
246,Rumah Sakit Santa Maria,ChIJfQKYWA6s1TER78Qpnq8XMVE,0.5273898999999999,101.4422225,hospital
247,ESZQUERA Aesthetic Clinic & Medical SPA,ChIJu_EQzRWs1TER6RccCTwL8fM,0.5299205,101.4543438,hospital
248,Estetiq,ChIJMcqFpgus1TERzuCcrlvS2Qk,0.5312960999999999,101.4376683,hospital
249,Klinik Bedah Plastik Pekanbaru ESTETIQ,ChIJqxEwDwus1TER3wIWWILT_Xw,0.531836,101.437652,hospital
250,Rumah Sakit Mata SMEC Pekanbaru,ChIJL1qmY9au1TERNTEegteoAXQ,0.4800504999999999,101.4391045,hospital
251,Eka Hospital Pekanbaru,ChIJfY1G_1ip1TER9z9cdGXzjpU,0.4823295,101.4202668,hospital
252,Apotik Budhi Mulia,ChIJFRbm59io1TER6BDZjOPCQGs,0.4765073999999999,101.4186271,pharmacy
253,Apotek & Kosmetika Laris Farma,ChIJawtlnMao1TERcuHKkNWEYBc,0.464206,101.418795,pharmacy
254,Apotek Kimia Farma A Yani 118C,ChIJjdYY9g6s1TER3vhVEOTJfiQ,0.5216657000000001,101.442414,pharmacy
255,Century Pharma - Sudirman,ChIJbwFrrb2u1TERaeQXTky5DMU,0.5318328,101.4478307,pharmacy
256,Apotik Medika Pekanbaru,ChIJzUUKSAms1TERHrz-NzGnJXE,0.5283831,101.4383438,pharmacy
257,SOHO Industri Pharmasi. PT (Parit Padang. PT) - Pekanbaru,ChIJ6VGkHWys1TERLaCw5OBAhhA,0.4929626999999999,101.4681059,pharmacy
258,Kalbe Farma PT. Tbk,ChIJoSZ3dGus1TER2rk_NbEoZ2s,0.501781,101.465307,pharmacy
259,Century Pharma - Mal Ciputra Seraya,ChIJ87nrDour1TER0i80jgMkG6k,0.5358326999999999,101.4301153,pharmacy
260,Palang Merah Indonesia,ChIJD-UZP6au1TEROxNqU4YxHKI,0.5158714999999999,101.4445433,pharmacy
261,Apotik Kimia Farma No. 21 RSUD Pekan Baru,ChIJkTysuR6s1TERSZfElJZnlRE,0.519247,101.452174,pharmacy
262,Tempo. PT,ChIJAxHRqLKu1TER1lN0TR5oFu0,0.5058185,101.4344768,pharmacy
263,Apotek Kimia Farma Pekanbaru,ChIJuQReggWs1TERiXjVLLrbDbc,0.5218973,101.4424418,pharmacy
264,Sawah Besar Farma. PT,ChIJg2-t5emu1TERrWJlpFVG0YU,0.4916935,101.4573912,pharmacy
265,Century Pharma,ChIJx5IGDZOu1TERO5Eo2JNXJUE,0.498627,101.46389,pharmacy
266,GUARDIAN - Giant Nangka,ChIJ7bGCVEyp1TERUBZTcYRcEGQ,0.5034773,101.4309036,pharmacy
267,Kimia Farma Nangka,ChIJh9iTKEyp1TERLFXNBbscPng,0.5031139,101.428442,pharmacy
268,Stokis K-link,ChIJOwCRSwms1TERlIVVYA4C8IE,0.5194428,101.4334643,pharmacy
269,Milagros Pekanbaru (Stokis Resmi),ChIJqQQ-7VGp1TERVDOfQL0qSSI,0.5071829,101.4274189,pharmacy
270,Apotek Mandiri,ChIJ71mHKRKs1TERGiK99NMnwn8,0.5286059,101.4477178,pharmacy
271,Century Pharma - Jaya,ChIJnQaHjRys1TERSm3wmNjQlnQ,0.529919,101.44777,pharmacy
272,Apotek Willy Farma,ChIJTwW_tjys1TERmMclVxlHixs,0.5249184,101.4611695,pharmacy
273,PT. Guardian Pharmatama,ChIJj9Hh0RKs1TERB80JeaRoRUg,0.5268769999999999,101.4591548,pharmacy
274,Century Pharma - Jaya,ChIJrX9EVxKs1TERQhtXKu3qtko,0.5313034,101.4474573,pharmacy
275,Apotek Kimia Farma Melur,ChIJZaJVnAWs1TERXCjTFQUcK6k,0.5281544,101.4342276,pharmacy
276,Apotek Trans,ChIJCT6Y-eKr1TEROfR-Hc-uMDw,0.5174228000000001,101.4212653,pharmacy
277,Apotik Natasha,ChIJkY1f4Uap1TERTCl2L_Ye6b8,0.4993876999999999,101.4186535,pharmacy
278,Apotek Borobudur,ChIJVb0JqjKs1TERHZdr9U0Hpdw,0.5245368999999999,101.479056,pharmacy
279,Indofarma. PT Persero Tbk,ChIJX9u0HV2u1TERfHo4R39IzLo,0.4945536,101.4888343,pharmacy
280,Merapi Utama Pharma. PT,ChIJBxeWPsSo1TER1PM4GbpnIls,0.4653689999999999,101.418564,pharmacy
281,Apotek Kimia Farma,ChIJAQvyG_So1TERYVVc9OdCUoY,0.464414,101.4016605,pharmacy
282,Apotik Kaharuddin,ChIJ-Qu1FVmv1TER5N8cZdUL1aY,0.4445341,101.4493632,pharmacy
283,Distributor Resmi ABE Pekanbaru,ChIJ4_XzF1av1TERjexwCBcoi3E,0.441887,101.440942,pharmacy
284,Kimia Farma Apotek 596,ChIJCaeidEOo1TERl1DlVnrrZ0M,0.4638543999999999,101.3796536,pharmacy
285,Combiphar. PT,ChIJ7WrEBSOr1TER_qw_WJWAiFM,0.573854,101.397429,pharmacy
286,TOKO HERBAL DARUS SYIFA,ChIJ851VU12o1TERcDHEMwV0d9M,0.4601843,101.3771608,pharmacy
287,Milagros Pekanbaru (Stokis Resmi),ChIJ4cvCMOWx1TERFXL8sAzf7pU,0.5054333,101.5343142,pharmacy
288,Anugrah Pharmindo Lestari. PT,ChIJef8YMrhU1DERivjt6kREQfk,0.5995061,101.4137217,pharmacy
289,Toko Obat Dan Kosmetik Refiana Jaya,ChIJa_w3E8-n1TERpDgFCzo79VQ,0.4290348,101.3786109,pharmacy
290,Apotik Des Farma,ChIJo5c2rUGo1TERLXArWTmMxW4,0.402444,101.3828471,pharmacy
291,PT. Indofarma Global Medika,ChIJwYDZiQDA1TERUKECrYPbDRg,0.2956643,101.7077735,pharmacy
292,Dr.K Bird Shop,ChIJ46-E3LWu1TERknXA4_jnyrU,0.4904929000000001,101.4388268,pet_store
293,Kenken Petshop,ChIJocgBRSqs1TERN2VzaQeQEL0,0.5168680000000001,101.475636,pet_store
294,pekanbaru king farm,ChIJmadfK9Wu1TERO9RBurod0DE,0.475579,101.4263337,pet_store
295,Antic Pets Shop Pekanbaru,ChIJ38xPj5ar1TEReFwBvoKnoe8,0.5391722,101.4144317,pet_store
296,NAGOYA GUPPIES,ChIJI8I1mH6v1TERAmshhlXFqQA,0.5030643,101.4438647,pet_store
297,CITRA AQUARIUM,ChIJyxY-Uq6u1TERPA8Uz_Jsi1o,0.5078821000000001,101.4421482,pet_store
298,Bravo Pet Shop,ChIJlc4_Uq6u1TERYSEIZDvIYGM,0.5077193999999999,101.4421015,pet_store
299,Persinggahan Hawari,ChIJh_p7rwKs1TERyXOdJxa-pcI,0.5157428,101.4445862,pet_store
300,Komunitas Lovebird Pekanbaru,ChIJjVVsArSu1TERkvRU-hhdLvY,0.5010728999999999,101.4395367,pet_store
301,Gibran Jaya,ChIJDU4_SSWv1TER1YcVrp-r8r4,0.500323,101.439026,pet_store
302,EVO PETSHOP AND COFFEESHOP,ChIJB4CiO2St1TERpAV6IwxlFO8,0.516386,101.441729,pet_store
303,EVO PETSHOP AND COFFEESHOP,ChIJbVLH17Ot1TERtV0sw87XD34,0.5163732,101.4414775,pet_store
304,Worenpets Gecko Farm,ChIJh0AUYTCv1TERZsbgLup3zBw,0.4961513,101.4441713,pet_store
305,Aqua Deal Pekanbaru,ChIJ39NiZx6p1TER_Uc7rfjqxQw,0.508173,101.4348572,pet_store
306,Awie Aquarium,ChIJ44yFsJWu1TER21qg3ivK2og,0.499841,101.458802,pet_store
307,CATGO Petshop,ChIJbbwsGEOv1TERvWJelOJs8WU,0.4955898,101.440673,pet_store
308,Pekanbaru Reef Corner,ChIJh1FifGiv1TERSce_HZnampQ,0.5143322,101.4363153,pet_store
309,Sahabat Ternak Toko,ChIJfaJ1Lb6u1TERSbJ2-hcZyIU,0.4995673999999999,101.4592711,pet_store
310,Aquarium Atek/ Atek Aquarium,ChIJdX48WWCu1TERX2wpMQzBBiY,0.4995318,101.4599938,pet_store
311,Exotic Petshop,ChIJWwva92Cu1TERjeFyQgczfDU,0.4992627,101.4600383,pet_store
312,Happy Puppy,ChIJI4X9Y42r1TERI3V4hdkFlWA,0.535046,101.4231979,night_club
313,Karaoke K'ok,ChIJdYVM6KWu1TER_n9mvbL48Co,0.5099770000000001,101.446578,night_club
314,PETERSELI KITCHEN,ChIJ-YOvERSs1TER1tk3upFhaLs,0.510427,101.454093,night_club
315,Alpha Singers,ChIJeWxaRr6u1TERyqbBJDcnNmI,0.4998015,101.4549841,night_club
316,Millenium Billiard,ChIJkeyDYq2u1TERg7RY7_U3LBA,0.5059758,101.4359332,night_club
317,Happy Puppy Sudirman,ChIJrX9EVxKs1TERy1Pvkk4dJPA,0.4887462,101.4540202,night_club
318,EMBASSY PEKANBARU,ChIJNYfNUhKs1TERcN6K_v9UfHc,0.530753,101.448454,night_club
319,Diva,ChIJIwAAAKut1TERMEdkrFnf_H4,0.4821602,101.4538266,night_club
320,XP Exclusive Club,ChIJMUrJGG2s1TERx9BN0PfJElE,0.5346531000000001,101.4477861,night_club
321,NEW PARAGON KTV POOL & CAFE,ChIJJX3PK2us1TERVOX4W6ETvQg,0.5347780999999999,101.4534774,night_club
322,Inul Vista,ChIJyxyJWHOp1TER6I74rNgRpBU,0.4976277,101.3942322,night_club
323,Pekanbaru,ChIJTWRYnmiv1TERl-Z6QksDnCg,0.5070677,101.4477793,night_club
324,Alvaro,ChIJt1bLKJ-v1TERMwwTFL1dXFg,0.5070677,101.4477793,night_club
325,U.K.S ujek kost squad,ChIJt_jGTWCv1TERdBLUo3R17bc,0.5041888,101.4481945,night_club
326,Terminal 8,ChIJsWPnqLyu1TERctXbYsftvdE,0.5055955000000001,101.451216,night_club
327,Pasukan Kodok,ChIJ5dS3lKOu1TERGi8GK3_HCLU,0.509498,101.4521034,night_club
328,GC COMPANY,ChIJVzp9MV6v1TER0VqBeROG2Qs,0.5023147,101.4543558,night_club
329,Gubuk Derita Camp,ChIJ2av54AKs1TERuxmX58XoVQo,0.5174200999999999,101.4435417,night_club
330,YUSKAR BUILDING,ChIJpYf1L5-u1TERiUmiO1sACWY,0.5112497,101.4588351,night_club
331,Berlian Karaoke,ChIJHadSYq2u1TERQxZLtFeiItc,0.5062230000000001,101.435823,night_club
332,Arena Entertaiment,ChIJGWHdnLKu1TER9_FWedco2Vo,0.5058694000000001,101.4350724,night_club
333,masjid al muqoddis ffi,ChIJW-T2H8Gu1TERtjQG8YIBv9o,0.4944293999999999,101.4523851,night_club
334,Anak nolep,ChIJ2Yyqctat1TERVGLY9GQCAnI,0.5182296,101.4380829,night_club
335,Faalyt,ChIJx44cVVWp1TERc5sk5HKcBNA,0.5152187,101.4337912,night_club
336,Family Box,ChIJVRnEsk2p1TERwx9H5hUzmrg,0.5037374999999998,101.4302833,night_club
337,The kost,ChIJkeHhbcqv1TERLWS-DKyTMck,0.4911556,101.4395019,night_club
338,The kost,ChIJG-HRMX6v1TERa2pSc3zVgDE,0.4911597999999999,101.4394877,night_club
339,The kost,ChIJ1c3wUcGv1TER9t79oHU7NCs,0.4911597999999999,101.4394877,night_club
340,nama Lengkap Masri,ChIJORwsTEqp1TERkv7GFD3TPPg,0.4988769,101.4301674,night_club
341,"Kos Putri Pilosofi,",ChIJr0c5m6ev1TERnbCtUTUIL-w,0.4957757,101.4636252,night_club
342,Family Box,ChIJGYaFW5Ku1TERV-hZ8QetPps,0.4994803,101.4661837,night_club
343,jalan hercules,ChIJyXOfLM6u1TERo2r_YKMjlzY,0.4878497000000001,101.4423392,night_club
344,Kedai Jajanan Sd Raka Santuy,ChIJl2hkd-uv1TERceYdaITaXzg,0.4893171999999999,101.4366003,night_club
345,Kost Berisik,ChIJ4_On9vir1TERjD6xyXGT09c,0.5220506000000001,101.4321388,night_club
346,Ktv And Pool,ChIJU5wsaAms1TERi4IquXtmWpo,0.5284118,101.4393365,night_club
347,ARENA LUDO,ChIJVcayd-6t1TERYFU5JpNccc8,0.5249431,101.462534,night_club
348,Club Executive CE7,ChIJJfqMZwms1TERFl6DPJfVDp0,0.528563,101.4382904,night_club
349,MP Club,ChIJSRPzUhKs1TERfY0QakYb8eQ,0.5318499000000001,101.4480708,night_club
350,MP Club Pekanbaru One Stop Entertaiment,ChIJ05AWtTmt1TERB7uVT_gfS6I,0.5318898,101.4483123,night_club
351,Primadona Karaoke,ChIJr-eLbROs1TERmoxsUEqoQ9g,0.5321281999999999,101.4497771,night_club
352,CGV Studio Pekanbaru,ChIJYcEdBaiu1TERQJJuhdns2t8,0.5101367,101.4469543,movie_theater
353,CGV Cinemas - Transmart Pekanbaru,ChIJrfgSTUSp1TERJeaqYMjgfw4,0.5033118999999998,101.4200895,movie_theater
354,Ciputra Seraya XXI,ChIJVfTatHiCeC4RKlB6jQtU7Lg,0.5360614,101.4301886,movie_theater
355,Empistudio,ChIJG9paj5es1TERRx0EFv6phVI,0.5692461999999998,101.4456806,movie_theater
356,star-net desa baru,ChIJBVoRBnOl1TERHE2zEW33RbA,0.4274533,101.4895364,movie_theater
357,Pressent Studio,ChIJj3ZZVaOu1TERbmchgTvcQ5E,0.5061639000000001,101.4506266,movie_theater
358,Studio Pekanbaru,ChIJVxVA-82v1TERInSGeTCyNBY,0.5100716,101.4466981,movie_theater
359,CGV Studio Cinema,ChIJw_in7Bev1TERlpyyFPdak6Y,0.5102896,101.4470404,movie_theater
360,bmg production,ChIJaUoyr6qu1TERBbbSykEHVms,0.5161878000000001,101.4345568,movie_theater
361,Salon Gaspool,ChIJ_Ud1YXat1TERyQdiml-pEqE,0.5168899,101.4344515,movie_theater
362,CGV Holiday Pekanbaru,ChIJz7ZaW1Kt1TERvxsQJOGiW-Q,0.5335373,101.4537909,movie_theater
363,Cinemaxx Living World,ChIJEXOan7Gp1TERG4PKT1ntqV4,0.5002414000000001,101.4200645,movie_theater
364,"Cinemaxx GOLD, LIVING WORLD PEKANBARU",ChIJqZg8ki-p1TERZU-3BS_xzNw,0.5002755999999998,101.4200309,movie_theater
365,SKA XXI,ChIJzQGswUap1TERybX5VVhGAyE,0.5001291,101.4181762,movie_theater
366,Premiere Studio 21 Mall Ska,ChIJUbZwwUap1TERMxIutaahCDM,0.5000747999999999,101.4180997,movie_theater
367,Cine box,ChIJVUCQcsSp1TERKdujN3V0rco,0.499655,101.4169062,movie_theater
368,V box,ChIJhy1DNamp1TERxeYp2opB8L4,0.4999400000000001,101.4168227,movie_theater
369,Komputer Munawir's Club,ChIJ8-JCKXKp1TERRIVbkrjGBTo,0.5012923999999999,101.3974206,movie_theater
370,M. BOX Royal Platinum,ChIJ1eK69_2o1TERR-4L1yTe21Y,0.4785146,101.3952721,movie_theater
371,D'BOX Movie Box,ChIJUUimHuyo1TER-LazG4sPm5w,0.4644227,101.4043818,movie_theater
372,Junior High School 14 Pekanbaru,ChIJUYJujRes1TER6CFr9o4520Q,0.525489,101.4550444,school
373,Junior High School 10 Penkanbaru,ChIJ-6bDxBes1TERAFN6fFvWjy8,0.5270511999999999,101.4562129,school
374,SMP Negeri 33,ChIJfYfNc9qr1TERsNydAkitJp4,0.5196135,101.3915673,school
375,SMA Santa Maria Pekanbaru,ChIJM2W38p-u1TERwC6vg9EHVWc,0.5145805999999999,101.4573793,school
376,Sekolah Menengah Kejuruan Negeri 1 Pekanbaru,ChIJIQWuGD2s1TER_6-4snpXAFU,0.5262896,101.4589816,school
377,Santa Maria Elementary School II,ChIJ11YcoeOr1TERGJWM1AH7I2c,0.518795,101.4193362,school
378,SMP 11 Pekanbaru,ChIJfVW-SUqs1TERM9XMd1SgPqA,0.5353336,101.4755577,school
379,Junior High School 9 Pekanbaru,ChIJ_UzysF2u1TER5_9nsT8JlMI,0.4940174999999999,101.4870843,school
380,Sekolah Dasar Negeri 038,ChIJryC9v5iu1TERRzH-YCjnwxQ,0.5098453,101.4578052,school
381,Lembaga Bimbingan Belajar Ganesha Operation Ahmad Yani 1,ChIJjdYY9g6s1TER3_lS8GztpFI,0.5259376000000001,101.4424223,school
382,Dumai,ChIJ73oxGo2n0zER3W9Ctkvsz5A,0.5299259999999999,101.44842,school
383,Catholic Elementary School Santa Maria Pekanbaru,ChIJrwKL8g6s1TERwiohhI_B-Oo,0.5268979000000001,101.4427929,school
384,SD Islam dan Leadership Bintang Cendekia,ChIJa_lyvh-p1TER8IzY3wR5RhY,0.4802188000000001,101.4117778,school
385,SDS Cendana Rumbai,ChIJY0aesKis1TERUqaFRyIMtfA,0.5810299999999999,101.43889,school
386,Kumon Indonesia - Kulim Tampan,ChIJ_6pBRoqr1TERW0d-rv4AOnI,0.5371549999999999,101.43188,school
387,Stikes Payung Negeri,ChIJ6QcgPvqr1TEREC97RDP6-SM,0.5245479,101.4270955,school
388,TK & Playgroup Alumna Islamic School - Sukajadi Pekanbaru,ChIJ6Z9tJQCs1TERtEdFRXiiC-E,0.5158168999999999,101.4354504,school
389,Apple Tree Pre-School - Pekanbaru,ChIJRft1FCep1TEROwLBRKflS7Q,0.5273133,101.4205905,school
390,Junior Sw. Champion,ChIJVf_hr-uu1TERMD4kvO9mXFg,0.4939018,101.4602461,school
391,SMP Negeri 8 Pekanbaru,ChIJtzofs_BT1DERhcZdaHOz6T8,0.4624550000000001,101.4336723,school
392,SMA Muhammadiyah 01,ChIJq3wKmquu1TERfCOb-E--w3o,0.5118559,101.4378589,school
393,TK & Playgroup Kreatif Primagama - Lumba-lumba Pekanbaru,ChIJI1qPjeyu1TERCRm5a_9pSHI,0.5333332999999999,101.45,school
394,School SMP Negeri 3 Pekanbaru,ChIJuWtfOvir1TERNRZ8KMjEGQM,0.5242678,101.4320133,school
395,MTs Muhammadiyah 02 Pekanbaru,ChIJK5U-TBep1TERlAPNmxBPTxQ,0.4888814,101.4061331,school
396,Health Polytechnic Riau,ChIJddvlBAis1TERnJjz40akOTQ,0.5260450000000001,101.4348851,school
397,Christian Schools Kalam Kudus,ChIJaVFYJSSs1TEROgXLHKCa4cs,0.5324078,101.465954,school
398,SMP Muhammadiyah 1,ChIJ0Q-7kauu1TERCny49cR0l5A,0.5117989,101.4378566,school
399,Robota Robotics School,ChIJwyE7L7uu1TER-J1grYPQukw,0.5055839,101.4485225,school
400,Elementary School 114 Pekanbaru,ChIJ-yjXSruu1TERmJZkLyq-p94,0.5064183999999999,101.4497044,school
401,Sekolah Dasar Negeri 77 Pekanbaru,ChIJfyLDWLeu1TERrNyKgx_TQ_c,0.506136,101.4451442,school
402,Ipi-Lepindo,ChIJCzyXl6Su1TERhQ5v0ZVWoOM,0.507316,101.45017,school
403,Sekolah Dasar Negeri 139 Pekanbaru,ChIJpc3nkLuu1TERcYhY0ds4h0k,0.5018227000000001,101.4498773,school
404,Islamic Senior High School of 2 Model Pekanbaru,ChIJ759b06Ou1TERnvp1bfNojgQ,0.5108467999999999,101.4525846,school
405,Lembaga ABCDE,ChIJx8SLHqeu1TERCe3N8tyVi88,0.5131612,101.4492455,school
406,SMA Negeri 5 Pekanbaru,ChIJqT3vH7Gu1TERvJrHUfM8omI,0.5027096,101.4427944,school
407,Sekolah Dasar Negeri 121 Pekanbaru,ChIJAz5f56eu1TERLBTkXLnG8Lc,0.5147776,101.4455888,school
408,Diniyah Putri,ChIJ_TF8sbqu1TERSDi7J-uMjSQ,0.5072118000000001,101.4392711,school
409,Alifa Kids,ChIJdVvm9qiu1TERy4ihFASxnM0,0.5128100999999999,101.4433551,school
410,Perguruan Beladiri Tenaga Dalam Islam Prana Sakti,ChIJU_hDqAKs1TER2Jygrv5RgWQ,0.5154209,101.4446721,school
411,Sekolah Dasar Negeri 6 Pekanbaru,ChIJCY0M3qeu1TER75nWr4aG-6A,0.5141036999999999,101.4455996,school
412,Metro Plaza,ChIJt7c8oJOu1TERJ1eGqIm9wU8,0.4997860999999999,101.4637818,shopping_mall
413,Kedaung Table Top Plaza,ChIJyciJeTmp1TERkUcA-ZYa_-E,0.4924359,101.419789,shopping_mall
414,SUZUYA Senapelan Plaza,ChIJVweT_xKs1TERhFdNDggg03E,0.5326662999999999,101.4482508,shopping_mall
415,Wellcomm Shop SKA Mall,ChIJg0TQmUap1TERC1qLqaClLqA,0.4961655000000001,101.4185989,shopping_mall
416,PITA Decor Store,ChIJRcwPurau1TERJo_BbtAV8K4,0.500811,101.440607,shopping_mall
417,Kaka Cell,ChIJ4aOyBB2s1TERx0Dban_c-Mw,0.5173129,101.4474057,shopping_mall
418,Toko Obat Herbal Center,ChIJ2-KxBbSu1TERWGBelbXSEiQ,0.5010472,101.4390356,shopping_mall
419,Grosir Perlengkapan Atribut Pramuka Murah Online,ChIJ5awYiLKu1TERzcXgcCERhKA,0.5054299999999999,101.4367313,shopping_mall
420,adya shop,ChIJPZ9pdrOu1TERZGnqpkTMK_g,0.5022529999999998,101.436638,shopping_mall
421,Eiger Store,ChIJKe08epmu1TERA-Nf5EmlGSU,0.5086823,101.4617047,shopping_mall
422,Kaplink motor,ChIJr8Dy_pmu1TERunwF2ZFm4h0,0.5062105999999998,101.4620475,shopping_mall
423,Nike,ChIJsXgk6Rqs1TERjmfnSNs38RE,0.5230230000000001,101.44698,shopping_mall
424,Vapempire Pekanbaru,ChIJhVIxB5Su1TEREovEO_kh_HU,0.5010939999999998,101.4621979,shopping_mall
425,Samsung Elektronik,ChIJsXgk6Rqs1TERj2OT2u1ptIQ,0.5230230000000001,101.44698,shopping_mall
426,Fifa,ChIJsXgk6Rqs1TERCfnsBUEaRBU,0.5230230000000001,101.44698,shopping_mall
427,Fresh Market,ChIJsXgk6Rqs1TERomucRVMcHpE,0.5230230000000001,101.44698,shopping_mall
428,Pengetaman Kayu Nur Yaqin,ChIJaVY0H8uu1TER4-CjlM09iGs,0.4942258,101.4354359,shopping_mall
429,ZifZaq Perabot Dan Meubel Pekanbaru,ChIJ-e21OdCu1TERIGWFgnvzSZM,0.4865501999999999,101.4432337,shopping_mall
430,Anggun Busana,ChIJ32s42P2r1TER4UySmaw2VCU,0.5170273,101.4281107,shopping_mall
431,Indomaret Tuanku Tambusai Simpang Gulama,ChIJNZBOJk-p1TERgfNSQJG7i9k,0.5020461,101.425284,shopping_mall
432,Swalayan 999 harapan raya,ChIJZS0kMb6u1TERFlbNO2g-Gxs,0.4928907,101.4521209,supermarket
433,Colour's Mart,ChIJaaapX1uo1TERxXkY6fF0p3Q,0.4647808,101.3782361,supermarket
434,Alfamart Jl. Harapan Raya 2,ChIJob2d6Yuu1TERKxKZj1L8rZg,0.5006396,101.4748899,supermarket
435,Indomaret Sudirman 422,ChIJqy2zmaSu1TERg3atYLQeud0,0.5073584,101.4503607,supermarket
436,Alfamart,ChIJQxMhHLSu1TERy44I68VaOlg,0.5005172999999998,101.4392372,supermarket
437,Indomaret,ChIJUQ3cg62u1TER_jGAn3-Mcbw,0.5063911,101.4370006,supermarket
438,Indomaret,ChIJoTev0LWu1TER3mZgEqY5VVY,0.4985091,101.4392228,supermarket
439,Indomaret,ChIJjxp6urKu1TERReouvM4UiyQ,0.5053263,101.4346493,supermarket
440,Giant Ekstra Tuanku Tambusai,ChIJGwnKVEyp1TERVkoFGl3DhAc,0.5037595,101.4308106,supermarket
441,Alfamart Kini Balu,ChIJ_41NHD2s1TERMT083HBqGqw,0.5261211,101.4592768,supermarket
442,Indomaret,ChIJGb3o5ROs1TERvVixLMtEYLo,0.5297386000000001,101.4499334,supermarket
443,Lotte Wholesale Pekanbaru,ChIJ-_2DtVqp1TER0T9vmjaboOc,0.5062468999999999,101.420908,supermarket
444,Pasar Buah Pekanbaru,ChIJz5WQkb6u1TEROcnCcmB6jdA,0.5346524,101.4474015,supermarket
445,Alfamart Tuanku Tambusai 2,ChIJyfFlekap1TERfuT5iQindNg,0.5010777000000001,101.4203673,supermarket
446,Transmart Carrefour Pekanbaru,ChIJyWEmYOOr1TERCg6J8CqOomA,0.5031186000000001,101.4200232,supermarket
447,HYPERMART SKA PEKANBARU,ChIJtVhTHEep1TERRBvaGtdAJy8,0.4992654,101.4182245,supermarket
448,Hypermart Ciputra Pekanbaru,ChIJiSHjb4ur1TERWI6u-5dr2ac,0.5355385,101.4302317,supermarket
449,Indomaret,ChIJrfbAViip1TERDyfWgwOaSoY,0.4803283999999999,101.4251164,supermarket
450,Toko Anton Jaya,ChIJYSP35Fuu1TERG3Lqm_45dlU,0.4913951,101.4855104,supermarket
451,Mulia Mart,ChIJv2taM46r1TERwLS4iwwTtOM,0.5408271,101.4235948,supermarket
452,Mulia Sukses,ChIJ4xPbOw-s1TERKELaX-5TZZs,0.5263616999999999,101.4404154,store
453,Toko Semangat Baru,ChIJ2YWrEQ6s1TERP0F_SuVfkH8,0.528521,101.444371,store
454,Teratai,ChIJSQHNjAGs1TERIHywhoBAfsA,0.5165171,101.4391153,store
455,Swalayan 999 harapan raya,ChIJZS0kMb6u1TERFlbNO2g-Gxs,0.4928907,101.4521209,store
456,Naga Swalayan,ChIJjQiDPMyu1TER-VkVgSVp_k8,0.4907185999999999,101.4388513,store
457,Toserba Surya Jaya,ChIJRbNtrBGs1TERx3t0q91s1tc,0.5263283,101.4477354,store
458,Toserba Mama,ChIJRfl9KRKs1TERZ24eaPgtW3M,0.5292235,101.4477167,store
459,TOSERBA FHAJAR ( SWALAYAN ECERAN & GROSIR ),ChIJPTvsv42u1TERlh28FYGHenU,0.500128,101.469479,store
460,99 Mart,ChIJC_QC1Yur1TERqmKzYfGLr70,0.5383281999999999,101.4305804,store
461,Planet Mart,ChIJQZiT9uuo1TER0R2J9m-ssPk,0.4636837999999999,101.4057183,store
462,Colour's Mart,ChIJaaapX1uo1TERxXkY6fF0p3Q,0.4647808,101.3782361,store
463,Unit Pasar Kodim Ulamm,ChIJv9mycAms1TER3zot7At04xw,0.5285427999999999,101.4371116,store
464,Apotik Budhi Mulia,ChIJFRbm59io1TER6BDZjOPCQGs,0.4765073999999999,101.4186271,store
465,V-Communication,ChIJe99uAhOs1TERbsf38JkAKCs,0.5326945,101.4481772,store
466,3Store Pekanbaru,ChIJR2fFxcKu1TERCa9y0vH1KJw,0.5355850999999998,101.4301636,store
467,Talenta Fotocopy dan Percetakan,ChIJsweRnVio1TERikzJzgN7vbg,0.4703169999999999,101.3855398,store
468,Indonas Ban,ChIJWxWEakGp1TERh8mUJaovGXk,0.501263,101.4233552,store
469,Indonesian Bakery,ChIJHerhDAqs1TERUrN1gOhowUg,0.5303457,101.4342577,store
470,Apotek & Kosmetika Laris Farma,ChIJawtlnMao1TERcuHKkNWEYBc,0.464206,101.418795,store
471,MAIN OFFICE PELITA TOUR & TRAVEL,ChIJF47CX5Kr1TERxXNepoiHOR4,0.5362399999999999,101.420953,store
